#dP2020  8  2  0  0  0.00000000      97 __u+U IGS14 FIT  IAC
## 2117      0.00000000   900.00000000 59063 0.0000000000000
+  122   C01C02C03C04C05C06C07C08C09C10C11C12C13C14C16C19C20
+        C21C22C23C24C25C26C27C28C29C30C32C33C34C35C36C37C38
+        C39C40C43C44C45C46C60E01E02E03E04E05E07E08E09E11E12
+        E13E14E15E18E19E21E24E25E26E27E30E31E33E36G01G02G03
+        G04G05G06G07G08G09G10G11G12G13G15G16G17G18G19G20G21
+        G22G23G24G25G26G27G28G29G30G31G32J01J02J03J07R01R02
+        R03R04R05R07R08R09R11R12R13R14R15R16R17R18R19R20R21
+        R23R24R26  0  0  0  0  0  0  0  0  0  0  0  0  0  0
++         0  0  0  0  0  0  0  0  0  0  0  0  0  0  0  0  0
++         0  0  0  0  0  0  0  0  0  0  0  0  0  0  0  0  0
++         0  0  0  0  0  0  0  0  0  0  0  0  0  0  0  0  0
++         0  0  0  0  0  0  0  0  0  0  0  0  0  0  0  0  0
++         0  0  0  0  0  0  0  0  0  0  0  0  0  0  0  0  0
++         0  0  0  0  0  0  0  0  0  0  0  0  0  0  0  0  0
++         0  0  0  0  0  0  0  0  0  0  0  0  0  0  0  0  0
++         0  0  0  0  0  0  0  0  0  0  0  0  0  0  0  0  0
%c M  cc GPS ccc cccc cccc cccc cccc ccccc ccccc ccccc ccccc
%c cc cc ccc ccc cccc cccc cccc cccc ccccc ccccc ccccc ccccc
%f  1.2500000  1.025000000  0.00000000000  0.000000000000000
%f  0.0000000  0.000000000  0.00000000000  0.000000000000000
%i    0    0    0    0      0      0      0      0         0
%i    0    0    0    0      0      0      0      0         0
/* INFORMATION & ANALYSIS CENTER (IAC)            FINAL DATA
/* S/V CLOCKS ARE ALIGNED TO GNSS TIME                      
/* G:C1WC2W R:C1PC2P E:C1XC5X C:C2IC6I J:C1CC2S             
/* PCV:IGS14_2114 OL/AL:FES2004  NONE     YN ORB:CoN CLK:CoN
*  2020 08 02 15 30  0.00000000
PC01 -34376.509138  24442.504967    308.316247   -269.130270
PC02   4484.305985  41924.720655    -65.136826    173.972180
PC03 -14736.456956  39524.121276   -891.218645    812.830871
PC04 -39647.786992  14403.195213   -625.622650    -62.431664
PC05  21847.251092  36069.866747    112.575290     14.691713
PC06 -17822.769189  22829.815466  30906.127417    803.264615
PC07 -18405.356556  38213.027031   1878.514932    109.635971
PC08  -4262.629112  27624.382296 -31347.936683   -418.009870
PC09  -3087.858551  24549.719847  34381.481486    717.410268
PC10  -8736.734051  40231.031513  -9920.250197   -221.146468
PC11 -22768.461605 -12096.083745  10802.288325   -530.165349
PC12  -5236.966055 -16012.252218  22279.862688    453.694556
PC13   7023.089660  35337.631032 -21585.391206    575.216062
PC14 -12405.453502 -10035.810970 -22867.664525    760.047202
PC16 -15551.803825  22907.677720  31830.458721   -593.273241
PC19  18414.949601    842.260314  20969.370042    495.678114
PC20   5188.863316  16947.366017  21578.955905   -836.387893
PC21  11694.670173 -23538.111324  -9323.047330   -662.783979
PC22  21277.300688 -16095.416485   8128.450345   -767.288861
PC23 -13787.650503   9213.342367  22458.668837   -844.803812
PC24 -10935.270827 -25488.358897   3168.908472   -751.308244
PC25 -17919.932865 -10702.892525  18531.060144   -707.524105
PC26    856.457591 -24687.620580 -13010.855424    777.592348
PC27  -5945.510206  14891.713545 -22858.272547    374.859389
PC28 -23243.510161   5350.065653 -14497.473587   -187.602900
PC29  27100.466269   6247.074139  -2300.235161    264.421617
PC30  14985.306031  15206.809640 -17985.550866    355.387645
PC32 -11505.679222  23654.112747   9353.869753   -879.850794
PC33 -18420.747869   -787.104239 -20948.231202   -794.873178
PC34 -15416.828519 -15145.172245  17634.239232   -887.216679
PC35  23199.951265  -6039.037439  14302.322781   -721.048463
PC36  17629.647409  11380.114096 -18368.053412   -887.085223
PC37  -1960.228889  24304.321517  13590.887927   -886.368181
PC38  -4137.639209  30017.110755 -29268.089916     92.361662
PC39 -14766.327250  23764.157949  31513.542231     20.192848
PC40 -16219.974636  38302.429348  -7494.096357     67.397980
PC43 -26978.002213  -6608.498082   2587.976048 999999.999999
PC44   5739.391203 -15125.366637  22731.410901   -293.268623
PC45  13624.032215  -9237.346626 -22521.502522    194.975229
PC46  11302.876896  25224.072891  -3718.810470    706.577146
PC60   7244.247558  41503.207171  -1928.609895     -0.810915
PE01 -16331.969321  10012.350108  22573.391637   -911.194886
PE02  16311.761557 -10129.054066 -22524.244676    151.614962
PE03  27705.356250 -10062.174838   2611.423684   -327.327083
PE04 -17038.650376  19016.894506  14986.386009   -578.331543
PE05  22254.455465   4905.377050  18893.032953   -358.040373
PE07  -3868.254680 -16872.136785 -24000.941684   -417.247104
PE08  16739.932439 -19073.432086 -15218.270741   6140.820242
PE09   4007.193376  16691.582605  24123.479534   5976.721157
PE11  13468.475578  21807.098207 -14828.532404   4518.620668
PE12  -6509.189642  15234.504150 -24535.654094   5675.795330
PE13 -13370.194045 -21705.736109  15040.470315    402.741960
PE14  17614.803365 -11438.604043  11778.473870  -1105.988764
PE15   6207.306429 -15314.967342  24557.511815    857.758261
PE18 -14260.072599  19135.875590 -21796.833238  -1210.190004
PE19 -27923.190397   8648.389077  -4653.122170     43.138784
PE21 -14131.050822 -12082.543125  23035.432163   -613.551205
PE24   3300.996980  27753.437624  -9733.015505   5318.497947
PE25  14069.020314  12251.189997 -22971.720608   -514.531513
PE26 -25134.016682 -15181.935653  -3777.979569   2889.082978
PE27  -3650.003655 -27601.948949  10056.371938    164.316570
PE30   9340.606528 -26548.466548  -9180.379897   3697.967276
PE31  -8936.760160  26824.347462   8787.589075   -473.467534
PE33 -22139.592005    -75.669655 -19647.236564   -464.200938
PE36  25090.785988  15352.724046   3302.596346    526.038789
PG01  20235.475781  12147.019135  12274.588689     31.000086
PG02 -12676.432890 -22068.959364   8308.737173   -496.389111
PG03  15141.312315   2197.190088  21630.357717   -258.283409
PG04  25846.141035   1036.437623   6120.609638   -119.852701
PG05  -4591.352398 -20908.471711 -15743.414328    -17.962620
PG06  -1245.209212 -20037.113215  17417.511195   -310.896761
PG07  15224.426521  -4823.510962 -20971.024985   -341.256149
PG08  20092.761653   7483.866366 -15832.381173    -43.113514
PG09  24745.944187  -8158.072146  -5247.389701   -263.907573
PG10 -11580.213573  23463.051861  -3627.932539   -416.769244
PG11  23307.375844  12222.568866  -2240.352929   -203.872600
PG12 -14403.460568  -3788.551195  21748.013243     85.761767
PG13 -12109.974341 -13229.083110 -19744.246153     32.206072
PG15 -21314.270725  -6019.072843 -15251.470419   -213.336279
PG16   4497.723665  18788.763615 -18240.096482   -190.562939
PG17  12947.031585 -13965.707398  18919.440700    305.158514
PG18 -14593.006489   5520.905595 -21512.382716    260.934366
PG19   5233.789683 -14537.408901  21297.451041   -123.786162
PG20 -14928.948445  16250.956778 -14689.402214    527.149929
PG21   4308.936793  20736.644168 -15483.778140     31.014177
PG22  13061.341377  10570.825882  20801.035921   -767.433682
PG23 -15467.171732  17673.615404 -12428.453135     26.420409
PG24 -21357.932892 -12844.131004   9495.939729    -16.568675
PG25 -16853.635423   8337.084974  18418.336978     30.495512
PG26  -3783.430538  25378.195497  -6415.754700    254.321140
PG27   9596.818486  12987.649743 -21296.666030   -361.297527
PG28  12439.887063 -23494.564838  -1138.307526    693.568501
PG29 -26309.501227   3456.959359  -1656.257307   -163.955323
PG30   7373.527963 -15114.974172 -20461.412749   -274.387086
PG31   1969.244038  20938.468919  15895.249666    -59.600614
PG32 -11401.712354  15194.359442  18588.230321    326.695367
PJ01 -28420.025741  31256.732827   4286.134983   -193.479978
PJ02 -27190.171324  24864.873127  25388.273438     -1.906670
PJ03 -31160.851002  17240.776811 -17993.152185     -0.282843
PJ07      0.000000      0.000000      0.000000 999999.999999
PR01 -14235.660720  -1441.237489 -21118.411047     65.441823
PR02 -20973.097567  13630.033139  -4810.782875    439.142956
PR03 -13143.622991  18000.759159  12402.729209     19.658188
PR04   1893.824619  11965.440208  22474.499585     58.462772
PR05  15952.125286   -727.146156  19909.588650     55.143343
PR07  12835.131415 -17957.525488 -12784.279260    -38.961555
PR08  -1911.688968 -12051.463251 -22348.061242    -53.823902
PR09   7993.360541 -13201.317922 -20268.606610    146.771486
PR11  -7306.904702 -23230.393620   7520.649637    -32.678913
PR12 -11362.853665 -10461.103621  20337.842538    152.193883
PR13  -9171.029245   8946.558394  22048.510131    -41.962177
PR14  -1664.854501  23135.792688  10654.126445     54.023363
PR15   6734.243858  23689.634768  -6627.583134    106.957580
PR16  11749.004345   9402.505407 -20577.266779     -4.968917
PR17  -4021.915869   9787.568206 -23207.689111    346.350628
PR18  13249.240407  13612.547926 -17042.508155     44.439355
PR19  22910.082723  10967.365170  -2302.579038   -105.067708
PR20  19669.327855    605.923975  16252.545000   -418.302018
PR21   2898.134380 -10139.779736  23219.830790   -142.334803
PR23 -23926.713796  -7351.953839  -4942.083475    322.669998
PR24 -19354.729900    310.486728 -16612.872235      8.379347
PR26  22201.508230   3143.060299  12135.354141   -363.557586
EOF
